[{"OBJECT_NAME":"THEA","OBJECT_ID":"2018-099AQ","EPOCH":"2026-03-09T22:33:02.658240","MEAN_MOTION":15.31454284,"ECCENTRICITY":0.00065849,"INCLINATION":97.4542,"RA_OF_ASC_NODE":137.8815,"ARG_OF_PERICENTER":275.4664,"MEAN_ANOMALY":84.5826,"EPHEMERIS_TYPE":0,"CLASSIFICATION_TYPE":"U","NORAD_CAT_ID":43796,"ELEMENT_SET_NO":999,"REV_AT_EPOCH":39748,"BSTAR":0.00074635274,"MEAN_MOTION_DOT":0.00022649,"MEAN_MOTION_DDOT":0},{"OBJECT_NAME":"STARLINK-32845","OBJECT_ID":"2025-018K","EPOCH":"2026-03-09T21:35:15.269856","MEAN_MOTION":15.30210645,"ECCENTRICITY":0.00017732,"INCLINATION":53.1586,"RA_OF_ASC_NODE":308.4026,"ARG_OF_PERICENTER":148.7409,"MEAN_ANOMALY":211.3697,"EPHEMERIS_TYPE":0,"CLASSIFICATION_TYPE":"U","NORAD_CAT_ID":62815,"ELEMENT_SET_NO":999,"REV_AT_EPOCH":6320,"BSTAR":0.00074431831,"MEAN_MOTION_DOT":0.00021757,"MEAN_MOTION_DDOT":0}]
